ONEWEB-0092             
1 45437U 20020P   25222.87229423 -.00000536  00000+0 -15484-2 0  9996
2 45437  87.8799  82.9060 0001635  89.7146 270.4169 13.11415655262111
ONEWEB-0085             
1 45438U 20020Q   25223.05576911  .00000587  00000+0  16324-2 0  9993
2 45438  87.8794  82.8820 0001678  86.7717 273.3602 13.10859067262020
ONEWEB-0096             
1 45439U 20020R   25223.06306029  .00000585  00000+0  16145-2 0  9995
2 45439  87.8806  82.8479 0001964  81.3736 278.7614 13.11415357262017
ONEWEB-0037             
1 45440U 20020S   25223.04355839  .00000092  00000+0  22436-3 0  9992
2 45440  87.8810  82.8165 0001694  85.7805 274.3516 13.11419247262050
ONEWEB-0042             
1 45441U 20020T   25223.05271959  .00000448  00000+0  12280-2 0  9994
2 45441  87.8799  82.8587 0001816  86.7937 273.3398 13.11416155262016
ONEWEB-0098             
1 45442U 20020U   25223.04864638  .00000291  00000+0  78515-3 0  9996
2 45442  87.8800  82.8697 0001624  74.3035 285.8272 13.11418278261994
ONEWEB-0055             
1 45443U 20020V   25222.87908285 -.00000505  00000+0 -14608-2 0  9996
2 45443  87.8794  82.9055 0001734  80.3787 279.7537 13.11417834261947
ONEWEB-0093             
1 45444U 20020W   25223.00723883 -.00000071  00000+0 -23675-3 0  9995
2 45444  87.8797  82.8645 0002154  89.2696 270.8678 13.11414896262022
ONEWEB-0029             
1 45445U 20020X   25222.64171314 -.00000467  00000+0 -13526-2 0  9993
2 45445  87.8800  82.9500 0001878  81.9898 278.1443 13.11415999261951
ONEWEB-0068             
1 45446U 20020Y   25223.00694640 -.00000019  00000+0 -88408-4 0  9993
2 45446  87.8796  82.8656 0001911  81.8216 278.3128 13.11416870261948
ONEWEB-0046             
1 45447U 20020Z   25223.07492367  .00000340  00000+0  92445-3 0  9993
2 45447  87.8797  82.8620 0001875  89.7111 270.4232 13.11415245261967
ONEWEB-0063             
1 45448U 20020AA  25222.87483959 -.00000476  00000+0 -13796-2 0  9991
2 45448  87.8799  82.9002 0001656  89.2663 270.8655 13.11416053262028
ONEWEB-0019             
1 45449U 20020AB  25223.00116843  .00000184  00000+0  48274-3 0  9997
2 45449  87.8795  82.8922 0001803  80.1232 280.0100 13.11413834261886
ONEWEB-0094             
1 45450U 20020AC  25223.00603719  .00003405  00000+0  87303-2 0  9996
2 45450  87.9031  67.5619 0002691  89.0983 271.0457 13.17676692265464
ONEWEB-0087             
1 45451U 20020AD  25223.03746584 -.00000215  00000+0 -64145-3 0  9996
2 45451  87.8794  82.8178 0001996  83.3037 276.8318 13.11420348261930
ONEWEB-0082             
1 45452U 20020AE  25223.03423077 -.00000295  00000+0 -86877-3 0  9990
2 45452  87.8800  82.8436 0001873  78.9098 281.2241 13.11416641262024
ONEWEB-0050             
1 45453U 20020AF  25223.15565865  .00008340  00000+0  84211-3 0  9993
2 45453  87.9962 281.3984 0003822  53.1735 306.9844 14.90961465294226
