[{"OBJECT_NAME":"ONEWEB-0092","OBJECT_ID":"2020-020P","EPOCH":"2025-08-10T20:56:06.221472","MEAN_MOTION":13.11415655,"ECCENTRICITY":0.0001635,"INCLINATION":87.8799,"RA_OF_ASC_NODE":82.906,"ARG_OF_PERICENTER":89.7146,"MEAN_ANOMALY":270.4169,"EPHEMERIS_TYPE":0,"CLASSIFICATION_TYPE":"U","NORAD_CAT_ID":45437,"ELEMENT_SET_NO":999,"REV_AT_EPOCH":26211,"BSTAR":-0.0015484,"MEAN_MOTION_DOT":-5.36e-6,"MEAN_MOTION_DDOT":0},{"OBJECT_NAME":"ONEWEB-0085","OBJECT_ID":"2020-020Q","EPOCH":"2025-08-11T01:20:18.451104","MEAN_MOTION":13.10859067,"ECCENTRICITY":0.0001678,"INCLINATION":87.8794,"RA_OF_ASC_NODE":82.882,"ARG_OF_PERICENTER":86.7717,"MEAN_ANOMALY":273.3602,"EPHEMERIS_TYPE":0,"CLASSIFICATION_TYPE":"U","NORAD_CAT_ID":45438,"ELEMENT_SET_NO":999,"REV_AT_EPOCH":26202,"BSTAR":0.0016324,"MEAN_MOTION_DOT":5.87e-6,"MEAN_MOTION_DDOT":0},{"OBJECT_NAME":"ONEWEB-0096","OBJECT_ID":"2020-020R","EPOCH":"2025-08-11T01:30:48.409056","MEAN_MOTION":13.11415357,"ECCENTRICITY":0.0001964,"INCLINATION":87.8806,"RA_OF_ASC_NODE":82.8479,"ARG_OF_PERICENTER":81.3736,"MEAN_ANOMALY":278.7614,"EPHEMERIS_TYPE":0,"CLASSIFICATION_TYPE":"U","NORAD_CAT_ID":45439,"ELEMENT_SET_NO":999,"REV_AT_EPOCH":26201,"BSTAR":0.0016145,"MEAN_MOTION_DOT":5.85e-6,"MEAN_MOTION_DDOT":0},{"OBJECT_NAME":"ONEWEB-0037","OBJECT_ID":"2020-020S","EPOCH":"2025-08-11T01:02:43.444896","MEAN_MOTION":13.11419247,"ECCENTRICITY":0.0001694,"INCLINATION":87.881,"RA_OF_ASC_NODE":82.8165,"ARG_OF_PERICENTER":85.7805,"MEAN_ANOMALY":274.3516,"EPHEMERIS_TYPE":0,"CLASSIFICATION_TYPE":"U","NORAD_CAT_ID":45440,"ELEMENT_SET_NO":999,"REV_AT_EPOCH":26205,"BSTAR":0.00022436,"MEAN_MOTION_DOT":9.2e-7,"MEAN_MOTION_DDOT":0},{"OBJECT_NAME":"ONEWEB-0042","OBJECT_ID":"2020-020T","EPOCH":"2025-08-11T01:15:54.972576","MEAN_MOTION":13.11416155,"ECCENTRICITY":0.0001816,"INCLINATION":87.8799,"RA_OF_ASC_NODE":82.8587,"ARG_OF_PERICENTER":86.7937,"MEAN_ANOMALY":273.3398,"EPHEMERIS_TYPE":0,"CLASSIFICATION_TYPE":"U","NORAD_CAT_ID":45441,"ELEMENT_SET_NO":999,"REV_AT_EPOCH":26201,"BSTAR":0.001228,"MEAN_MOTION_DOT":4.48e-6,"MEAN_MOTION_DDOT":0},{"OBJECT_NAME":"ONEWEB-0098","OBJECT_ID":"2020-020U","EPOCH":"2025-08-11T01:10:03.047232","MEAN_MOTION":13.11418278,"ECCENTRICITY":0.0001624,"INCLINATION":87.88,"RA_OF_ASC_NODE":82.8697,"ARG_OF_PERICENTER":74.3035,"MEAN_ANOMALY":285.8272,"EPHEMERIS_TYPE":0,"CLASSIFICATION_TYPE":"U","NORAD_CAT_ID":45442,"ELEMENT_SET_NO":999,"REV_AT_EPOCH":26199,"BSTAR":0.00078515,"MEAN_MOTION_DOT":2.91e-6,"MEAN_MOTION_DDOT":0},{"OBJECT_NAME":"ONEWEB-0055","OBJECT_ID":"2020-020V","EPOCH":"2025-08-10T21:05:52.758240","MEAN_MOTION":13.11417834,"ECCENTRICITY":0.0001734,"INCLINATION":87.8794,"RA_OF_ASC_NODE":82.9055,"ARG_OF_PERICENTER":80.3787,"MEAN_ANOMALY":279.7537,"EPHEMERIS_TYPE":0,"CLASSIFICATION_TYPE":"U","NORAD_CAT_ID":45443,"ELEMENT_SET_NO":999,"REV_AT_EPOCH":26194,"BSTAR":-0.0014608,"MEAN_MOTION_DOT":-5.05e-6,"MEAN_MOTION_DDOT":0},{"OBJECT_NAME":"ONEWEB-0093","OBJECT_ID":"2020-020W","EPOCH":"2025-08-11T00:10:25.434912","MEAN_MOTION":13.11414896,"ECCENTRICITY":0.0002154,"INCLINATION":87.8797,"RA_OF_ASC_NODE":82.8645,"ARG_OF_PERICENTER":89.2696,"MEAN_ANOMALY":270.8678,"EPHEMERIS_TYPE":0,"CLASSIFICATION_TYPE":"U","NORAD_CAT_ID":45444,"ELEMENT_SET_NO":999,"REV_AT_EPOCH":26202,"BSTAR":-0.00023675,"MEAN_MOTION_DOT":-7.1e-7,"MEAN_MOTION_DDOT":0},{"OBJECT_NAME":"ONEWEB-0029","OBJECT_ID":"2020-020X","EPOCH":"2025-08-10T15:24:04.015296","MEAN_MOTION":13.11415999,"ECCENTRICITY":0.0001878,"INCLINATION":87.88,"RA_OF_ASC_NODE":82.95,"ARG_OF_PERICENTER":81.9898,"MEAN_ANOMALY":278.1443,"EPHEMERIS_TYPE":0,"CLASSIFICATION_TYPE":"U","NORAD_CAT_ID":45445,"ELEMENT_SET_NO":999,"REV_AT_EPOCH":26195,"BSTAR":-0.0013526,"MEAN_MOTION_DOT":-4.67e-6,"MEAN_MOTION_DDOT":0},{"OBJECT_NAME":"ONEWEB-0068","OBJECT_ID":"2020-020Y","EPOCH":"2025-08-11T00:10:00.168960","MEAN_MOTION":13.1141687,"ECCENTRICITY":0.0001911,"INCLINATION":87.8796,"RA_OF_ASC_NODE":82.8656,"ARG_OF_PERICENTER":81.8216,"MEAN_ANOMALY":278.3128,"EPHEMERIS_TYPE":0,"CLASSIFICATION_TYPE":"U","NORAD_CAT_ID":45446,"ELEMENT_SET_NO":999,"REV_AT_EPOCH":26194,"BSTAR":-8.8408e-5,"MEAN_MOTION_DOT":-1.9e-7,"MEAN_MOTION_DDOT":0},{"OBJECT_NAME":"ONEWEB-0046","OBJECT_ID":"2020-020Z","EPOCH":"2025-08-11T01:47:53.405088","MEAN_MOTION":13.11415245,"ECCENTRICITY":0.0001875,"INCLINATION":87.8797,"RA_OF_ASC_NODE":82.862,"ARG_OF_PERICENTER":89.7111,"MEAN_ANOMALY":270.4232,"EPHEMERIS_TYPE":0,"CLASSIFICATION_TYPE":"U","NORAD_CAT_ID":45447,"ELEMENT_SET_NO":999,"REV_AT_EPOCH":26196,"BSTAR":0.00092445,"MEAN_MOTION_DOT":3.4e-6,"MEAN_MOTION_DDOT":0},{"OBJECT_NAME":"ONEWEB-0063","OBJECT_ID":"2020-020AA","EPOCH":"2025-08-10T20:59:46.140576","MEAN_MOTION":13.11416053,"ECCENTRICITY":0.0001656,"INCLINATION":87.8799,"RA_OF_ASC_NODE":82.9002,"ARG_OF_PERICENTER":89.2663,"MEAN_ANOMALY":270.8655,"EPHEMERIS_TYPE":0,"CLASSIFICATION_TYPE":"U","NORAD_CAT_ID":45448,"ELEMENT_SET_NO":999,"REV_AT_EPOCH":26202,"BSTAR":-0.0013796,"MEAN_MOTION_DOT":-4.76e-6,"MEAN_MOTION_DDOT":0},{"OBJECT_NAME":"ONEWEB-0019","OBJECT_ID":"2020-020AB","EPOCH":"2025-08-11T00:01:40.952352","MEAN_MOTION":13.11413834,"ECCENTRICITY":0.0001803,"INCLINATION":87.8795,"RA_OF_ASC_NODE":82.8922,"ARG_OF_PERICENTER":80.1232,"MEAN_ANOMALY":280.01,"EPHEMERIS_TYPE":0,"CLASSIFICATION_TYPE":"U","NORAD_CAT_ID":45449,"ELEMENT_SET_NO":999,"REV_AT_EPOCH":26188,"BSTAR":0.00048274,"MEAN_MOTION_DOT":1.84e-6,"MEAN_MOTION_DDOT":0},{"OBJECT_NAME":"ONEWEB-0094","OBJECT_ID":"2020-020AC","EPOCH":"2025-08-11T00:08:41.613216","MEAN_MOTION":13.17676692,"ECCENTRICITY":0.0002691,"INCLINATION":87.9031,"RA_OF_ASC_NODE":67.5619,"ARG_OF_PERICENTER":89.0983,"MEAN_ANOMALY":271.0457,"EPHEMERIS_TYPE":0,"CLASSIFICATION_TYPE":"U","NORAD_CAT_ID":45450,"ELEMENT_SET_NO":999,"REV_AT_EPOCH":26546,"BSTAR":0.0087303,"MEAN_MOTION_DOT":3.405e-5,"MEAN_MOTION_DDOT":0},{"OBJECT_NAME":"ONEWEB-0087","OBJECT_ID":"2020-020AD","EPOCH":"2025-08-11T00:53:57.048576","MEAN_MOTION":13.11420348,"ECCENTRICITY":0.0001996,"INCLINATION":87.8794,"RA_OF_ASC_NODE":82.8178,"ARG_OF_PERICENTER":83.3037,"MEAN_ANOMALY":276.8318,"EPHEMERIS_TYPE":0,"CLASSIFICATION_TYPE":"U","NORAD_CAT_ID":45451,"ELEMENT_SET_NO":999,"REV_AT_EPOCH":26193,"BSTAR":-0.00064145,"MEAN_MOTION_DOT":-2.15e-6,"MEAN_MOTION_DDOT":0},{"OBJECT_NAME":"ONEWEB-0082","OBJECT_ID":"2020-020AE","EPOCH":"2025-08-11T00:49:17.538528","MEAN_MOTION":13.11416641,"ECCENTRICITY":0.0001873,"INCLINATION":87.88,"RA_OF_ASC_NODE":82.8436,"ARG_OF_PERICENTER":78.9098,"MEAN_ANOMALY":281.2241,"EPHEMERIS_TYPE":0,"CLASSIFICATION_TYPE":"U","NORAD_CAT_ID":45452,"ELEMENT_SET_NO":999,"REV_AT_EPOCH":26202,"BSTAR":-0.00086877,"MEAN_MOTION_DOT":-2.95e-6,"MEAN_MOTION_DDOT":0},{"OBJECT_NAME":"ONEWEB-0050","OBJECT_ID":"2020-020AF","EPOCH":"2025-08-11T03:44:08.907360","MEAN_MOTION":14.90961465,"ECCENTRICITY":0.0003822,"INCLINATION":87.9962,"RA_OF_ASC_NODE":281.3984,"ARG_OF_PERICENTER":53.1735,"MEAN_ANOMALY":306.9844,"EPHEMERIS_TYPE":0,"CLASSIFICATION_TYPE":"U","NORAD_CAT_ID":45453,"ELEMENT_SET_NO":999,"REV_AT_EPOCH":29422,"BSTAR":0.00084211,"MEAN_MOTION_DOT":8.34e-5,"MEAN_MOTION_DDOT":0}]
